{"epoch":1784710044,"count":18256,"objects":[{"id":"43574","name":"IRIDIUM 154","type":"PAYLOAD","l1":"1 43574U 18061F   26202.55771439  .00000025  00000-0  17569-5 0  9992","l2":"2 43574  86.3938  42.4290 0002311  88.7919 271.3542 14.34217486418335"},{"id":"43575","name":"IRIDIUM 163","type":"PAYLOAD","l1":"1 43575U 18061G   26202.53868586  .00000113  00000-0  33379-4 0  9995","l2":"2 43575  86.3935  42.3511 0002109  87.1663 272.9774 14.34218286418302"},{"id":"43576","name":"IRIDIUM 156","type":"PAYLOAD","l1":"1 43576U 18061H   26202.09470370  .00000140  00000-0  42786-4 0  9999","l2":"2 43576  86.3936  42.5444 0002191  93.4013 266.7433 14.34217326418230"},{"id":"43577","name":"IRIDIUM 164","type":"PAYLOAD","l1":"1 43577U 18061J   26202.56405666  .00000003  00000-0 -59808-5 0  9991","l2":"2 43577  86.3933  42.3887 0002214  88.2617 271.8832 14.34217613418346"},{"id":"43578","name":"IRIDIUM 159","type":"PAYLOAD","l1":"1 43578U 18061K   26202.53234315  .00000018  00000-0 -76993-6 0  9991","l2":"2 43578  86.3931  42.3382 0001981  86.7100 273.4322 14.34217524418304"},{"id":"43922","name":"IRIDIUM 180","type":"PAYLOAD","l1":"1 43922U 19002A   26202.39230305 -.00000028  00000-0 -16993-4 0  9993","l2":"2 43922  86.3995 339.3000 0002044  91.2586 268.8844 14.34217275393899"},{"id":"43923","name":"IRIDIUM 176","type":"PAYLOAD","l1":"1 43923U 19002B   26202.61873205  .00000582  00000-0  88422-4 0  9990","l2":"2 43923  86.6120 339.1438 0002344  91.9007 268.2479 14.72255008404310"},{"id":"43924","name":"IRIDIUM 168","type":"PAYLOAD","l1":"1 43924U 19002C   26202.66503454  .00000187  00000-0  59818-4 0  9990","l2":"2 43924  86.4002 339.2640 0002201  91.8048 268.3400 14.34218579393918"},{"id":"43925","name":"IRIDIUM 173","type":"PAYLOAD","l1":"1 43925U 19002D   26202.65234855 -.00000020  00000-0 -14226-4 0  9998","l2":"2 43925  86.3994 339.1570 0002029  93.0412 267.1016 14.34217668393891"},{"id":"43926","name":"IRIDIUM 169","type":"PAYLOAD","l1":"1 43926U 19002E   26202.47364598  .00000145  00000-0  40938-4 0  9992","l2":"2 43926  86.4234  10.8549 0002044 104.8033 255.3392 14.38600315395152"},{"id":"43927","name":"IRIDIUM 172","type":"PAYLOAD","l1":"1 43927U 19002F   26202.64600617  .00000048  00000-0  10094-4 0  9999","l2":"2 43927  86.3998 339.1675 0002194  92.0490 268.0957 14.34218028393908"},{"id":"43928","name":"IRIDIUM 175","type":"PAYLOAD","l1":"1 43928U 19002G   26202.23992897  .00000203  00000-0  53808-4 0  9992","l2":"2 43928  86.4504 276.2874 0005532 103.7291 256.4526 14.43629333403891"},{"id":"43929","name":"IRIDIUM 171","type":"PAYLOAD","l1":"1 43929U 19002H   26202.34790550  .00000134  00000-0  40913-4 0  9993","l2":"2 43929  86.4008 339.6019 0002268  95.4895 264.6559 14.34217745393857"},{"id":"43930","name":"IRIDIUM 170","type":"PAYLOAD","l1":"1 43930U 19002J   26202.35302911  .00000544  00000-0  82408-4 0  9996","l2":"2 43930  86.6118 339.2569 0002196  89.3059 270.8410 14.72255073404286"},{"id":"43931","name":"IRIDIUM 167","type":"PAYLOAD","l1":"1 43931U 19002K   26202.62063622  .00000005  00000-0 -54430-5 0  9998","l2":"2 43931  86.3994 339.2009 0002278  97.5237 262.6218 14.34217541393890"},{"id":"56726","name":"IRIDIUM 181","type":"PAYLOAD","l1":"1 56726U 23068S   26202.49383613  .00000233  00000-0  63167-4 0  9999","l2":"2 56726  86.4475  42.4428 0002356  83.7424 276.4045 14.43309515167388"},{"id":"56727","name":"IRIDIUM 177","type":"PAYLOAD","l1":"1 56727U 23068T   26202.32960618  .00000747  00000-0  95301-4 0  9993","l2":"2 56727  86.1987 312.5831 0002247  97.5946 262.5530 14.80031332171418"},{"id":"56728","name":"IRIDIUM 174","type":"PAYLOAD","l1":"1 56728U 23068U   26202.34056157  .00000539  00000-0  82116-4 0  9999","l2":"2 56728  86.6087 339.4106 0001947  42.6651 317.4717 14.71989794171048"},{"id":"56729","name":"IRIDIUM 178","type":"PAYLOAD","l1":"1 56729U 23068V   26202.45385356  .00000614  00000-0  77719-4 0  9995","l2":"2 56729  86.6542  11.0384 0002247  92.1384 268.0095 14.80024258171431"},{"id":"56730","name":"IRIDIUM 179","type":"PAYLOAD","l1":"1 56730U 23068W   26202.04283907  .00000202  00000-0  23242-4 0  9996","l2":"2 56730  86.6770  20.2889 0002393  94.1429 266.0066 14.80024497171376"}]}